VICTUS HAZE PUMA        
1 69646U 26142A   26198.28484869  .00002209  00000+0  10157-3 0  9990
2 69646  97.4460  95.5636 0026410 259.4735 100.3525 15.21130484  4240
HOKUSHIN-1              
1 69648U 98067YH  26199.90095834  .00015983  00000+0  27615-3 0  9997
2 69648  51.6319 142.8432 0006177 343.5660  16.5129 15.51128389  4575
STARLINK-37656          
1 69649U 26143A   26199.57525809  .00022813  00000+0  41965-3 0  9991
2 69649  97.2851 243.4906 0000550  18.4108 341.7163 15.49206159  5404
STARLINK-37646          
1 69650U 26143B   26198.40359773 -.00159329  00000+0 -30305-2 0  9999
2 69650  97.2850 242.4838 0003494 139.4005 220.7507 15.48770998  5233
STARLINK-37749          
1 69651U 26143C   26199.57300904  .00015533  00000+0  28661-3 0  9990
2 69651  97.2847 243.6477 0000939 109.3625 250.7727 15.49197876  5413
STARLINK-37819          
1 69652U 26143D   26198.09895882  .00037410  00000+0  68551-3 0  9991
2 69652  97.2815 242.1313 0001683  91.4316 268.7128 15.49219289  5188
STARLINK-37729          
1 69653U 26143E   26199.91668981 -.02307046  00000+0 -22754-1 0  9994
2 69653  97.2853 244.5290 0001863  99.1174 181.9055 15.69495117  5552
STARLINK-37838          
1 69654U 26143F   26199.94271106 -.00470456  00000+0 -94337-2 0  9998
2 69654  97.2821 244.0626 0005266 197.9554 162.1512 15.48366818  5478
STARLINK-37884          
1 69655U 26143G   26199.91668981 -.01821959  00000+0 -53813-1 0  9999
2 69655  97.2854 243.9365 0002807  91.7369 231.9289 15.38211170  5550
STARLINK-37876          
1 69656U 26143H   26199.91668981  .00036873  00000+0  10192-2 0  9994
2 69656  97.2840 244.0115 0001087  88.5644  61.5900 15.36943314  5467
STARLINK-37784          
1 69657U 26143J   26199.06872889  .00035171  00000+0  64465-3 0  9998
2 69657  97.2837 243.1099 0000872 101.0730 259.0619 15.49225127  5261
STARLINK-37851          
1 69658U 26143K   26198.07193549  .00020222  00000+0  37230-3 0  9999
2 69658  97.2843 242.1702 0000622  94.0044 266.1279 15.49205906  5119
STARLINK-37229          
1 69659U 26143L   26199.91668981 -.04437312  00000+0 -13596+0 0  9994
2 69659  97.2865 243.9790 0002727  57.9242 347.8186 15.38016256  5509
STARLINK-37556          
1 69660U 26143M   26199.91668981 -.01610452  00000+0 -48777-1 0  9992
2 69660  97.2842 243.9453 0001313 132.0518 225.3957 15.37587490  5501
STARLINK-37867          
1 69661U 26143N   26199.91668981  .00034782  00000+0  10752-2 0  9999
2 69661  97.2846 243.9816 0001790  58.4071  21.5652 15.33431750  5469
STARLINK-37852          
1 69662U 26143P   26199.84803185  .00023696  00000+0  43789-3 0  9998
2 69662  97.2837 243.8870 0004134 345.0983  15.0145 15.49060514  5380
STARLINK-37554          
1 69663U 26143Q   26199.91668981  .00031133  00000+0  86125-3 0  9996
2 69663  97.2848 243.9689 0001622  97.4190 316.2194 15.36952453  5501
STARLINK-37830          
1 69664U 26143R   26199.91668981  .00017120  00000+0  47540-3 0  9995
2 69664  97.2849 243.9557 0001843  73.5076 296.1905 15.36954922  5453
STARLINK-37837          
1 69665U 26143S   26199.07366775  .00010188  00000+0  28381-3 0  9998
2 69665  97.2839 243.1034 0000707  83.4688 276.6638 15.36980990  5261
STARLINK-37943          
1 69666U 26143T   26199.90530712 -.00800559  00000+0 -17014-1 0  9995
2 69666  97.2839 243.9616 0002318 102.8874 257.2635 15.47484725  5392
STARLINK-37941          
1 69667U 26143U   26199.91668981 -.02721424  00000+0 -74116-1 0  9998
2 69667  97.2847 244.0035 0002125  80.5856  31.1614 15.41574841  5464
STARLINK-37930          
1 69668U 26143V   26198.08308824  .00029225  00000+0  53610-3 0  9997
2 69668  97.2839 242.1534 0001166 117.7877 242.3492 15.49238300  5116
STARLINK-37945          
1 69669U 26143W   26198.07018358  .00021140  00000+0  38917-3 0  9998
2 69669  97.2808 242.1687 0000806  71.0791 289.0547 15.49200166  5117
STARLINK-37948          
1 69670U 26143X   26199.66829962  .00025409  00000+0  46703-3 0  9991
2 69670  97.2858 243.6736 0000206 336.1292  23.9949 15.49209185  5357
STARLINK-37949          
1 69671U 26143Y   26199.12716244  .00033274  00000+0  61059-3 0  9991
2 69671  97.2832 243.1814 0000474 279.8491  80.2706 15.49203170  5279
STARLINK-37946          
1 69672U 26143Z   26199.69455914  .00024722  00000+0  45444-3 0  9996
2 69672  97.2853 243.7889 0000094 264.4292  95.6948 15.49211451  5367
TJS-26A                 
1 69674U 26144A   26199.87248403 -.00000355  00000+0  00000+0 0  9994
2 69674   6.9434 323.2333 0004098 349.1492  45.9312  1.00271768   266
CZ-7A R/B               
1 69675U 26144B   26198.73837562  .01345100  45801-4  14334-2 0  9990
2 69675  19.4386 313.7982 7052259 198.9731 108.4435  2.65384182   630
STARLINK-38005          
1 69677U 26145A   26199.54366920  .00215058  00000+0  14010-2 0  9993
2 69677  97.2835  46.5416 0001207 114.8686 245.2705 15.75283787  3709
STARLINK-38009          
1 69678U 26145B   26199.54190980  .00212009  00000+0  13827-2 0  9993
2 69678  97.2837  46.5448 0001342 112.3279 247.8129 15.75266910  3705
